STARLINK-2564_new
1 18284C 21036J   21326.16770491  .00007286  00000-0  48818-3 0  3266
2 18284  53.0519 282.9805 0001873  66.7566   8.0753 15.06389234    15
STARLINK-2564_old
1 28284C 21036J   21325.14864023 -.00016005  00000-0 -10723-2 0  3251
2 28284  53.0515 287.5555 0001841  68.0785 237.2523 15.06417052    18
